CCSDS_OMM_VERS = 2.0
CREATION_DATE  = 
ORIGINATOR     = 

OBJECT_NAME    = SL-14 R/B
OBJECT_ID      = 1986-046B
CENTER_NAME    = EARTH
REF_FRAME      = TEME
TIME_SYSTEM    = UTC
MEAN_ELEMENT_THEORY = SGP/SGP4

EPOCH          = 2025-11-24T01:20:09.493152
MEAN_MOTION    = 14.85457163
ECCENTRICITY   = .0022222
INCLINATION    = 82.4819
RA_OF_ASC_NODE = 179.9589
ARG_OF_PERICENTER = 214.2110
MEAN_ANOMALY   = 145.7676

EPHEMERIS_TYPE = 0
CLASSIFICATION_TYPE = U
NORAD_CAT_ID   = 16792
ELEMENT_SET_NO = 999
REV_AT_EPOCH   = 11072
BSTAR          = .58469E-4
MEAN_MOTION_DOT = .53E-5
MEAN_MOTION_DDOT = 0

CCSDS_OMM_VERS = 2.0
CREATION_DATE  = 
ORIGINATOR     = 

OBJECT_NAME    = SL-14 R/B
OBJECT_ID      = 1986-055B
CENTER_NAME    = EARTH
REF_FRAME      = TEME
TIME_SYSTEM    = UTC
MEAN_ELEMENT_THEORY = SGP/SGP4

EPOCH          = 2025-11-23T18:49:47.548704
MEAN_MOTION    = 14.85502395
ECCENTRICITY   = .0018149
INCLINATION    = 82.5220
RA_OF_ASC_NODE = 226.1814
ARG_OF_PERICENTER = 326.9829
MEAN_ANOMALY   = 91.5413

EPHEMERIS_TYPE = 0
CLASSIFICATION_TYPE = U
NORAD_CAT_ID   = 16882
ELEMENT_SET_NO = 999
REV_AT_EPOCH   = 10364
BSTAR          = .6207E-4
MEAN_MOTION_DOT = .561E-5
MEAN_MOTION_DDOT = 0

CCSDS_OMM_VERS = 2.0
CREATION_DATE  = 
ORIGINATOR     = 

OBJECT_NAME    = AJISAI (EGS)
OBJECT_ID      = 1986-061A
CENTER_NAME    = EARTH
REF_FRAME      = TEME
TIME_SYSTEM    = UTC
MEAN_ELEMENT_THEORY = SGP/SGP4

EPOCH          = 2025-11-24T01:21:23.455008
MEAN_MOTION    = 12.44514103
ECCENTRICITY   = .001123
INCLINATION    = 50.0106
RA_OF_ASC_NODE = 58.1654
ARG_OF_PERICENTER = 18.9637
MEAN_ANOMALY   = 162.5325

EPHEMERIS_TYPE = 0
CLASSIFICATION_TYPE = U
NORAD_CAT_ID   = 16908
ELEMENT_SET_NO = 999
REV_AT_EPOCH   = 45484
BSTAR          = .42923E-4
MEAN_MOTION_DOT = -.91E-6
MEAN_MOTION_DDOT = 0

CCSDS_OMM_VERS = 2.0
CREATION_DATE  = 
ORIGINATOR     = 

OBJECT_NAME    = COSMOS 1812
OBJECT_ID      = 1987-003A
CENTER_NAME    = EARTH
REF_FRAME      = TEME
TIME_SYSTEM    = UTC
MEAN_ELEMENT_THEORY = SGP/SGP4

EPOCH          = 2025-11-24T00:44:57.386400
MEAN_MOTION    = 15.71435600
ECCENTRICITY   = .0006396
INCLINATION    = 82.4874
RA_OF_ASC_NODE = 312.2039
ARG_OF_PERICENTER = 112.5182
MEAN_ANOMALY   = 247.6759

EPHEMERIS_TYPE = 0
CLASSIFICATION_TYPE = U
NORAD_CAT_ID   = 17295
ELEMENT_SET_NO = 999
REV_AT_EPOCH   = 12771
BSTAR          = .68442E-3
MEAN_MOTION_DOT = .88014E-3
MEAN_MOTION_DDOT = 0

CCSDS_OMM_VERS = 2.0
CREATION_DATE  = 
ORIGINATOR     = 

OBJECT_NAME    = SL-14 R/B
OBJECT_ID      = 1987-024B
CENTER_NAME    = EARTH
REF_FRAME      = TEME
TIME_SYSTEM    = UTC
MEAN_ELEMENT_THEORY = SGP/SGP4

EPOCH          = 2025-11-24T03:03:26.112384
MEAN_MOTION    = 14.85997881
ECCENTRICITY   = .0016807
INCLINATION    = 82.5288
RA_OF_ASC_NODE = 191.9376
ARG_OF_PERICENTER = 248.9905
MEAN_ANOMALY   = 110.9514

EPHEMERIS_TYPE = 0
CLASSIFICATION_TYPE = U
NORAD_CAT_ID   = 17567
ELEMENT_SET_NO = 999
REV_AT_EPOCH   = 7245
BSTAR          = .59008E-4
MEAN_MOTION_DOT = .541E-5
MEAN_MOTION_DDOT = 0

CCSDS_OMM_VERS = 2.0
CREATION_DATE  = 
ORIGINATOR     = 

OBJECT_NAME    = COSMOS 1833
OBJECT_ID      = 1987-027A
CENTER_NAME    = EARTH
REF_FRAME      = TEME
TIME_SYSTEM    = UTC
MEAN_ELEMENT_THEORY = SGP/SGP4

EPOCH          = 2025-11-24T00:41:36.413088
MEAN_MOTION    = 14.13018004
ECCENTRICITY   = .002175
INCLINATION    = 70.9128
RA_OF_ASC_NODE = 188.1106
ARG_OF_PERICENTER = 358.0898
MEAN_ANOMALY   = 2.0136

EPHEMERIS_TYPE = 0
CLASSIFICATION_TYPE = U
NORAD_CAT_ID   = 17589
ELEMENT_SET_NO = 999
REV_AT_EPOCH   = 99538
BSTAR          = -.17783E-4
MEAN_MOTION_DOT = -.81E-6
MEAN_MOTION_DDOT = 0

CCSDS_OMM_VERS = 2.0
CREATION_DATE  = 
ORIGINATOR     = 

OBJECT_NAME    = SL-16 R/B
OBJECT_ID      = 1987-027B
CENTER_NAME    = EARTH
REF_FRAME      = TEME
TIME_SYSTEM    = UTC
MEAN_ELEMENT_THEORY = SGP/SGP4

EPOCH          = 2025-11-23T21:15:17.766720
MEAN_MOTION    = 14.17147728
ECCENTRICITY   = .0007267
INCLINATION    = 71.0001
RA_OF_ASC_NODE = 139.4465
ARG_OF_PERICENTER = 279.0627
MEAN_ANOMALY   = 80.9674

EPHEMERIS_TYPE = 0
CLASSIFICATION_TYPE = U
NORAD_CAT_ID   = 17590
ELEMENT_SET_NO = 999
REV_AT_EPOCH   = 35
BSTAR          = .10184E-3
MEAN_MOTION_DOT = .157E-5
MEAN_MOTION_DDOT = 0

CCSDS_OMM_VERS = 2.0
CREATION_DATE  = 
ORIGINATOR     = 

OBJECT_NAME    = SL-14 R/B
OBJECT_ID      = 1987-038B
CENTER_NAME    = EARTH
REF_FRAME      = TEME
TIME_SYSTEM    = UTC
MEAN_ELEMENT_THEORY = SGP/SGP4

EPOCH          = 2025-11-23T14:19:02.582688
MEAN_MOTION    = 14.85234661
ECCENTRICITY   = .0020073
INCLINATION    = 82.5033
RA_OF_ASC_NODE = 36.7291
ARG_OF_PERICENTER = 151.5182
MEAN_ANOMALY   = 208.7136

EPHEMERIS_TYPE = 0
CLASSIFICATION_TYPE = U
NORAD_CAT_ID   = 17912
ELEMENT_SET_NO = 999
REV_AT_EPOCH   = 6348
BSTAR          = .58806E-4
MEAN_MOTION_DOT = .53E-5
MEAN_MOTION_DDOT = 0

CCSDS_OMM_VERS = 2.0
CREATION_DATE  = 
ORIGINATOR     = 

OBJECT_NAME    = COSMOS 1844
OBJECT_ID      = 1987-041A
CENTER_NAME    = EARTH
REF_FRAME      = TEME
TIME_SYSTEM    = UTC
MEAN_ELEMENT_THEORY = SGP/SGP4

EPOCH          = 2025-11-24T00:49:32.959200
MEAN_MOTION    = 14.14528033
ECCENTRICITY   = .0030939
INCLINATION    = 70.8996
RA_OF_ASC_NODE = 257.0217
ARG_OF_PERICENTER = 186.0258
MEAN_ANOMALY   = 174.0497

EPHEMERIS_TYPE = 0
CLASSIFICATION_TYPE = U
NORAD_CAT_ID   = 17973
ELEMENT_SET_NO = 999
REV_AT_EPOCH   = 98864
BSTAR          = .42726E-4
MEAN_MOTION_DOT = .34E-6
MEAN_MOTION_DDOT = 0

CCSDS_OMM_VERS = 2.0
CREATION_DATE  = 
ORIGINATOR     = 

OBJECT_NAME    = SL-14 R/B
OBJECT_ID      = 1987-055B
CENTER_NAME    = EARTH
REF_FRAME      = TEME
TIME_SYSTEM    = UTC
MEAN_ELEMENT_THEORY = SGP/SGP4

EPOCH          = 2025-11-23T20:40:12.158112
MEAN_MOTION    = 14.85491718
ECCENTRICITY   = .002082
INCLINATION    = 82.4989
RA_OF_ASC_NODE = 88.7782
ARG_OF_PERICENTER = 7.6746
MEAN_ANOMALY   = 352.4785

EPHEMERIS_TYPE = 0
CLASSIFICATION_TYPE = U
NORAD_CAT_ID   = 18153
ELEMENT_SET_NO = 999
REV_AT_EPOCH   = 5422
BSTAR          = .70497E-4
MEAN_MOTION_DOT = .635E-5
MEAN_MOTION_DDOT = 0

CCSDS_OMM_VERS = 2.0
CREATION_DATE  = 
ORIGINATOR     = 

OBJECT_NAME    = COSMOS 1867
OBJECT_ID      = 1987-060A
CENTER_NAME    = EARTH
REF_FRAME      = TEME
TIME_SYSTEM    = UTC
MEAN_ELEMENT_THEORY = SGP/SGP4

EPOCH          = 2025-11-24T00:28:00.007392
MEAN_MOTION    = 14.31481737
ECCENTRICITY   = .0013564
INCLINATION    = 65.0100
RA_OF_ASC_NODE = 242.6252
ARG_OF_PERICENTER = 269.2758
MEAN_ANOMALY   = 90.6773

EPHEMERIS_TYPE = 0
CLASSIFICATION_TYPE = U
NORAD_CAT_ID   = 18187
ELEMENT_SET_NO = 999
REV_AT_EPOCH   = 481
BSTAR          = .31174E-4
MEAN_MOTION_DOT = -.17E-6
MEAN_MOTION_DDOT = 0

CCSDS_OMM_VERS = 2.0
CREATION_DATE  = 
ORIGINATOR     = 

OBJECT_NAME    = COSMOS 1892
OBJECT_ID      = 1987-088A
CENTER_NAME    = EARTH
REF_FRAME      = TEME
TIME_SYSTEM    = UTC
MEAN_ELEMENT_THEORY = SGP/SGP4

EPOCH          = 2025-11-24T01:15:04.597920
MEAN_MOTION    = 16.11255170
ECCENTRICITY   = .0005603
INCLINATION    = 82.4643
RA_OF_ASC_NODE = 64.7719
ARG_OF_PERICENTER = 269.6800
MEAN_ANOMALY   = 90.3842

EPHEMERIS_TYPE = 0
CLASSIFICATION_TYPE = U
NORAD_CAT_ID   = 18421
ELEMENT_SET_NO = 999
REV_AT_EPOCH   = 8832
BSTAR          = .73489E-3
MEAN_MOTION_DOT = .738737E-2
MEAN_MOTION_DDOT = .30321E-3

