SL-14 R/B               
1 16792U 86046B   25328.05566543  .00000530  00000+0  58469-4 0  9996
2 16792  82.4819 179.9589 0022222 214.2110 145.7676 14.85457163110729
SL-14 R/B               
1 16882U 86055B   25327.78457811  .00000561  00000+0  62070-4 0  9999
2 16882  82.5220 226.1814 0018149 326.9829  91.5413 14.85502395103641
AJISAI (EGS)            
1 16908U 86061A   25328.05652147 -.00000091  00000+0  42923-4 0  9999
2 16908  50.0106  58.1654 0011230  18.9637 162.5325 12.44514103454842
COSMOS 1812             
1 17295U 87003A   25328.03121975  .00088014  00000+0  68442-3 0  9997
2 17295  82.4874 312.2039 0006396 112.5182 247.6759 15.71435600127713
SL-14 R/B               
1 17567U 87024B   25328.12738556  .00000541  00000+0  59008-4 0  9999
2 17567  82.5288 191.9376 0016807 248.9905 110.9514 14.85997881 72455
COSMOS 1833             
1 17589U 87027A   25328.02889367 -.00000081  00000+0 -17783-4 0  9997
2 17589  70.9128 188.1106 0021750 358.0898   2.0136 14.13018004995388
SL-16 R/B               
1 17590U 87027B   25327.88562230  .00000157  00000+0  10184-3 0  9998
2 17590  71.0001 139.4465 0007267 279.0627  80.9674 14.17147728   354
SL-14 R/B               
1 17912U 87038B   25327.59655767  .00000530  00000+0  58806-4 0  9993
2 17912  82.5033  36.7291 0020073 151.5182 208.7136 14.85234661 63484
COSMOS 1844             
1 17973U 87041A   25328.03440925  .00000034  00000+0  42726-4 0  9995
2 17973  70.8996 257.0217 0030939 186.0258 174.0497 14.14528033988644
SL-14 R/B               
1 18153U 87055B   25327.86125183  .00000635  00000+0  70497-4 0  9990
2 18153  82.4989  88.7782 0020820   7.6746 352.4785 14.85491718 54227
COSMOS 1867             
1 18187U 87060A   25328.01944453 -.00000017  00000+0  31174-4 0  9994
2 18187  65.0100 242.6252 0013564 269.2758  90.6773 14.31481737  4814
COSMOS 1892             
1 18421U 87088A   25328.05213655  .00738737  30321-3  73489-3 0  9995
2 18421  82.4643  64.7719 0005603 269.6800  90.3842 16.11255170 88320
